start=new Date('2022-06-19T00:00:00.000Z').valueOf();
sats=[{"TIME_SYSTEM":"UTC","PERIOD":"95.247","LAUNCH_DATE":"2022-03-03","MEAN_MOTION":"15.11861025","BSTAR":"-0.04527700000000","CLASSIFICATION_TYPE":"U","ECCENTRICITY":"0.00014220","RCS_SIZE":"LARGE","GP_ID":"206290540","MEAN_MOTION_DDOT":"0.0000000000000","OBJECT_ID":"2022-022AD","MEAN_MOTION_DOT":"-0.00728646","RA_OF_ASC_NODE":"356.1228","PERIAPSIS":"529.544","SEMIMAJOR_AXIS":"6908.662","TLE_LINE2":"2 51879  53.2170 356.1228 0001422  55.6353 256.5625 15.11861025  1308","APOAPSIS":"531.509","CENTER_NAME":"EARTH","MEAN_ELEMENT_THEORY":"SGP4","SITE":"AFETR","NORAD_CAT_ID":"51879","MEAN_ANOMALY":"256.5625","ELEMENT_SET_NO":"999","ARG_OF_PERICENTER":"55.6353","COUNTRY_CODE":"US","INCLINATION":"53.2170","OBJECT_NAME":"STARLINK-3572","EPOCH":"2022-06-16T02:00:01.000224","REF_FRAME":"TEME","TLE_LINE1":"1 51879U 22022AD  22167.08334491 -.00728646  00000-0 -45277-1 0  9999","DECAY_DATE":null,"FILE":"3497002","EPHEMERIS_TYPE":"0","OBJECT_TYPE":"PAYLOAD","REV_AT_EPOCH":"130"},{"ARG_OF_PERICENTER":"45.4894","ELEMENT_SET_NO":"999","MEAN_ANOMALY":"17.3715","OBJECT_NAME":"STARLINK-3566","EPOCH":"2022-06-16T02:00:01.000224","INCLINATION":"53.2176","COUNTRY_CODE":"US","TLE_LINE1":"1 51880U 22022AE  22167.08334491  .00025919  00000-0  16409-2 0  9998","REF_FRAME":"TEME","REV_AT_EPOCH":"130","OBJECT_TYPE":"PAYLOAD","EPHEMERIS_TYPE":"0","FILE":"3497002","DECAY_DATE":null,"BSTAR":"0.00164090000000","CLASSIFICATION_TYPE":"U","MEAN_MOTION":"15.08833738","LAUNCH_DATE":"2022-03-03","PERIOD":"95.438","TIME_SYSTEM":"UTC","OBJECT_ID":"2022-022AE","RCS_SIZE":"LARGE","GP_ID":"206290287","MEAN_MOTION_DDOT":"0.0000000000000","ECCENTRICITY":"0.00018450","SEMIMAJOR_AXIS":"6917.900","PERIAPSIS":"538.488","RA_OF_ASC_NODE":"6.1047","MEAN_MOTION_DOT":"0.00025919","SITE":"AFETR","NORAD_CAT_ID":"51880","MEAN_ELEMENT_THEORY":"SGP4","CENTER_NAME":"EARTH","APOAPSIS":"541.041","TLE_LINE2":"2 51880  53.2176   6.1047 0001845  45.4894  17.3715 15.08833738  1302"},{"MEAN_MOTION_DOT":"-0.00727670","RA_OF_ASC_NODE":"356.1267","PERIAPSIS":"528.335","SEMIMAJOR_AXIS":"6907.457","TLE_LINE2":"2 51881  53.2171 356.1267 0001429  54.0339 295.1669 15.12256423  1307","MEAN_ELEMENT_THEORY":"SGP4","CENTER_NAME":"EARTH","APOAPSIS":"530.309","NORAD_CAT_ID":"51881","SITE":"AFETR","TIME_SYSTEM":"UTC","LAUNCH_DATE":"2022-03-03","PERIOD":"95.222","MEAN_MOTION":"15.12256423","BSTAR":"-0.04471400000000","CLASSIFICATION_TYPE":"U","ECCENTRICITY":"0.00014290","MEAN_MOTION_DDOT":"0.0000000000000","GP_ID":"206291381","RCS_SIZE":"LARGE","OBJECT_ID":"2022-022AF","REF_FRAME":"TEME","TLE_LINE1":"1 51881U 22022AF  22167.08334491 -.00727670  00000-0 -44714-1 0  9993","FILE":"3497002","EPHEMERIS_TYPE":"0","DECAY_DATE":null,"OBJECT_TYPE":"PAYLOAD","REV_AT_EPOCH":"130","MEAN_ANOMALY":"295.1669","ELEMENT_SET_NO":"999","ARG_OF_PERICENTER":"54.0339","COUNTRY_CODE":"US","INCLINATION":"53.2171","OBJECT_NAME":"STARLINK-3504","EPOCH":"2022-06-16T02:00:01.000224"},{"TLE_LINE2":"2 51882  53.2170 356.1210 0001401  62.6491 230.9086 15.11663602  1309","MEAN_ELEMENT_THEORY":"SGP4","CENTER_NAME":"EARTH","APOAPSIS":"532.096","NORAD_CAT_ID":"51882","SITE":"AFETR","MEAN_MOTION_DOT":"-0.00729260","RA_OF_ASC_NODE":"356.1210","PERIAPSIS":"530.160","SEMIMAJOR_AXIS":"6909.263","ECCENTRICITY":"0.00014010","GP_ID":"206289790","MEAN_MOTION_DDOT":"0.0000000000000","RCS_SIZE":"LARGE","OBJECT_ID":"2022-022AG","TIME_SYSTEM":"UTC","LAUNCH_DATE":"2022-03-03","PERIOD":"95.259","MEAN_MOTION":"15.11663602","BSTAR":"-0.04556900000000","CLASSIFICATION_TYPE":"U","EPHEMERIS_TYPE":"0","FILE":"3497002","DECAY_DATE":null,"OBJECT_TYPE":"PAYLOAD","REV_AT_EPOCH":"130","REF_FRAME":"TEME","TLE_LINE1":"1 51882U 22022AG  22167.08334491 -.00729260  00000-0 -45569-1 0  9990","COUNTRY_CODE":"US","INCLINATION":"53.2170","EPOCH":"2022-06-16T02:00:01.000224","OBJECT_NAME":"STARLINK-3570","MEAN_ANOMALY":"230.9086","ELEMENT_SET_NO":"999","ARG_OF_PERICENTER":"62.6491"},{"NORAD_CAT_ID":"51883","SITE":"AFETR","APOAPSIS":"529.316","MEAN_ELEMENT_THEORY":"SGP4","CENTER_NAME":"EARTH","TLE_LINE2":"2 51883  53.2171 356.1299 0001496  51.2971 329.8171 15.12597845  1308","SEMIMAJOR_AXIS":"6906.418","PERIAPSIS":"527.250","RA_OF_ASC_NODE":"356.1299","MEAN_MOTION_DOT":"-0.00726397","OBJECT_ID":"2022-022AH","MEAN_MOTION_DDOT":"0.0000000000000","GP_ID":"206290040","RCS_SIZE":"LARGE","ECCENTRICITY":"0.00014960","CLASSIFICATION_TYPE":"U","BSTAR":"-0.04420400000000","MEAN_MOTION":"15.12597845","LAUNCH_DATE":"2022-03-03","PERIOD":"95.200","TIME_SYSTEM":"UTC","REV_AT_EPOCH":"130","OBJECT_TYPE":"PAYLOAD","DECAY_DATE":null,"EPHEMERIS_TYPE":"0","FILE":"3497002","TLE_LINE1":"1 51883U 22022AH  22167.08334491 -.00726397  00000-0 -44204-1 0  9994","REF_FRAME":"TEME","OBJECT_NAME":"STARLINK-3576","EPOCH":"2022-06-16T02:00:01.000224","INCLINATION":"53.2171","COUNTRY_CODE":"US","ARG_OF_PERICENTER":"51.2971","ELEMENT_SET_NO":"999","MEAN_ANOMALY":"329.8171"},{"SITE":"AFETR","NORAD_CAT_ID":"51884","TLE_LINE2":"2 51884  53.2170 356.1248 0001342  62.8675 267.8778 15.12059038  1302","MEAN_ELEMENT_THEORY":"SGP4","CENTER_NAME":"EARTH","APOAPSIS":"530.851","PERIAPSIS":"528.996","SEMIMAJOR_AXIS":"6908.059","MEAN_MOTION_DOT":"-0.00728596","RA_OF_ASC_NODE":"356.1248","OBJECT_ID":"2022-022AJ","ECCENTRICITY":"0.00013420","GP_ID":"206290788","MEAN_MOTION_DDOT":"0.0000000000000","RCS_SIZE":"LARGE","MEAN_MOTION":"15.12059038","BSTAR":"-0.04502400000000","CLASSIFICATION_TYPE":"U","TIME_SYSTEM":"UTC","PERIOD":"95.234","LAUNCH_DATE":"2022-03-03","REV_AT_EPOCH":"130","FILE":"3497002","EPHEMERIS_TYPE":"0","DECAY_DATE":null,"OBJECT_TYPE":"PAYLOAD","TLE_LINE1":"1 51884U 22022AJ  22167.08334491 -.00728596  00000-0 -45024-1 0  9999","REF_FRAME":"TEME","OBJECT_NAME":"STARLINK-3577","EPOCH":"2022-06-16T02:00:01.000224","COUNTRY_CODE":"US","INCLINATION":"53.2170","ARG_OF_PERICENTER":"62.8675","MEAN_ANOMALY":"267.8778","ELEMENT_SET_NO":"999"},{"REV_AT_EPOCH":"130","FILE":"3497002","EPHEMERIS_TYPE":"0","DECAY_DATE":null,"OBJECT_TYPE":"PAYLOAD","TLE_LINE1":"1 51885U 22022AK  22167.08334491 -.00725040  00000-0 -43815-1 0  9997","REF_FRAME":"TEME","EPOCH":"2022-06-16T02:00:01.000224","OBJECT_NAME":"STARLINK-3584","COUNTRY_CODE":"US","INCLINATION":"53.2171","ARG_OF_PERICENTER":"42.2616","MEAN_ANOMALY":"1.8373","ELEMENT_SET_NO":"999","SITE":"AFETR","NORAD_CAT_ID":"51885","TLE_LINE2":"2 51885  53.2171 356.1320 0001701  42.2616   1.8373 15.12839787  1305","MEAN_ELEMENT_THEORY":"SGP4","CENTER_NAME":"EARTH","APOAPSIS":"528.721","PERIAPSIS":"526.372","SEMIMAJOR_AXIS":"6905.682","MEAN_MOTION_DOT":"-0.00725040","RA_OF_ASC_NODE":"356.1320","OBJECT_ID":"2022-022AK","ECCENTRICITY":"0.00017010","GP_ID":"206291036","MEAN_MOTION_DDOT":"0.0000000000000","RCS_SIZE":"LARGE","MEAN_MOTION":"15.12839787","BSTAR":"-0.04381500000000","CLASSIFICATION_TYPE":"U","TIME_SYSTEM":"UTC","LAUNCH_DATE":"2022-03-03","PERIOD":"95.185"},{"EPOCH":"2022-06-16T02:00:01.000224","OBJECT_NAME":"STARLINK-3565","COUNTRY_CODE":"US","INCLINATION":"53.2171","ARG_OF_PERICENTER":"45.3248","MEAN_ANOMALY":"322.2400","ELEMENT_SET_NO":"999","REV_AT_EPOCH":"130","FILE":"3497002","EPHEMERIS_TYPE":"0","DECAY_DATE":null,"OBJECT_TYPE":"PAYLOAD","TLE_LINE1":"1 51886U 22022AL  22167.08334491 -.00725176  00000-0 -44304-1 0  9992","REF_FRAME":"TEME","OBJECT_ID":"2022-022AL","ECCENTRICITY":"0.00015640","RCS_SIZE":"LARGE","GP_ID":"206291389","MEAN_MOTION_DDOT":"0.0000000000000","MEAN_MOTION":"15.12452703","BSTAR":"-0.04430400000000","CLASSIFICATION_TYPE":"U","TIME_SYSTEM":"UTC","LAUNCH_DATE":"2022-03-03","PERIOD":"95.210","SITE":"AFETR","NORAD_CAT_ID":"51886","TLE_LINE2":"2 51886  53.2171 356.1284 0001564  45.3248 322.2400 15.12452703  1307","MEAN_ELEMENT_THEORY":"SGP4","CENTER_NAME":"EARTH","APOAPSIS":"529.805","PERIAPSIS":"527.645","SEMIMAJOR_AXIS":"6906.860","MEAN_MOTION_DOT":"-0.00725176","RA_OF_ASC_NODE":"356.1284"},{"MEAN_MOTION":"15.13037608","BSTAR":"-0.04353900000000","CLASSIFICATION_TYPE":"U","TIME_SYSTEM":"UTC","LAUNCH_DATE":"2022-03-03","PERIOD":"95.173","OBJECT_ID":"2022-022AM","ECCENTRICITY":"0.00018210","MEAN_MOTION_DDOT":"0.0000000000000","GP_ID":"206290541","RCS_SIZE":"LARGE","PERIAPSIS":"525.687","SEMIMAJOR_AXIS":"6905.080","MEAN_MOTION_DOT":"-0.00724545","RA_OF_ASC_NODE":"356.1339","SITE":"AFETR","NORAD_CAT_ID":"51887","TLE_LINE2":"2 51887  53.2172 356.1339 0001821  38.2228  23.9668 15.13037608  1300","APOAPSIS":"528.202","MEAN_ELEMENT_THEORY":"SGP4","CENTER_NAME":"EARTH","ARG_OF_PERICENTER":"38.2228","MEAN_ANOMALY":"23.9668","ELEMENT_SET_NO":"999","EPOCH":"2022-06-16T02:00:01.000224","OBJECT_NAME":"STARLINK-3551","COUNTRY_CODE":"US","INCLINATION":"53.2172","TLE_LINE1":"1 51887U 22022AM  22167.08334491 -.00724545  00000-0 -43539-1 0  9991","REF_FRAME":"TEME","REV_AT_EPOCH":"130","DECAY_DATE":null,"EPHEMERIS_TYPE":"0","FILE":"3497002","OBJECT_TYPE":"PAYLOAD"},{"MEAN_MOTION":"15.12642296","BSTAR":"-0.04411300000000","CLASSIFICATION_TYPE":"U","TIME_SYSTEM":"UTC","LAUNCH_DATE":"2022-03-03","PERIOD":"95.198","OBJECT_ID":"2022-022AN","ECCENTRICITY":"0.00015030","MEAN_MOTION_DDOT":"0.0000000000000","GP_ID":"206290288","RCS_SIZE":"LARGE","PERIAPSIS":"527.110","SEMIMAJOR_AXIS":"6906.283","MEAN_MOTION_DOT":"-0.00725848","RA_OF_ASC_NODE":"356.1302","SITE":"AFETR","NORAD_CAT_ID":"51888","TLE_LINE2":"2 51888  53.2171 356.1302 0001503  50.6827 335.2331 15.12642296  1300","APOAPSIS":"529.186","CENTER_NAME":"EARTH","MEAN_ELEMENT_THEORY":"SGP4","ARG_OF_PERICENTER":"50.6827","MEAN_ANOMALY":"335.2331","ELEMENT_SET_NO":"999","EPOCH":"2022-06-16T02:00:01.000224","OBJECT_NAME":"STARLINK-3536","COUNTRY_CODE":"US","INCLINATION":"53.2171","TLE_LINE1":"1 51888U 22022AN  22167.08334491 -.00725848  00000-0 -44113-1 0  9998","REF_FRAME":"TEME","REV_AT_EPOCH":"130","DECAY_DATE":null,"EPHEMERIS_TYPE":"0","FILE":"3497002","OBJECT_TYPE":"PAYLOAD"}];
